OPS 6582 (TRANSIT 5B-5) 
1 00965U 64083D   24353.58336591  .00000119  00000+0  15368-3 0  9994
2 00965  90.0507 199.2799 0043221  74.2308 340.0023 13.56933713969619
LES-1                   
1 01002U 65008C   24353.02393278  .00000027  00000+0  25038-2 0  9991
2 01002  32.1428 258.5514 0014695 102.0790 258.1355  9.88354551162151
SOLRAD 7B               
1 01291U 65016D   24353.63616804  .00000089  00000+0  10526-3 0  9995
2 01291  70.0794 316.0307 0018459 121.6873 238.6035 13.94865159 41112
SECOR 4 (EGRS 4)        
1 01315U 65027B   24353.57592855  .00000036  00000+0  10710-3 0  9993
2 01315  90.2385   3.3730 0031033 181.9457 303.7220 12.92650497816434
TIROS 10                
1 01430U 65051A   24353.58667538  .00000501  00000+0  16605-3 0  9996
2 01430  98.4533 106.1640 0054463 277.9130  81.5880 14.41219946117315
ALOUETTE 2              
1 01804U 65098A   24353.79324149  .00001461  00000+0  48656-3 0  9990
2 01804  79.8036  20.3502 1332852 257.7263  87.1820 12.27538996611923
OV3-3                   
1 02389U 66070A   24353.51346812  .00018467  00000+0  88513-3 0  9991
2 02389  81.3313  86.4829 1083255 116.7302 254.8791 13.28782034526023
SECOR 7 (EGRS 7)        
1 02411U 66077B   24353.21292578  .00000023  00000+0  10546-1 0  9998
2 02411  90.3363 271.0596 0013167 249.7540 110.1896  8.59615465830863
ERS 15                  
1 02412U 66077C   24353.22080836  .00000002  00000+0  00000+0 0  9991
2 02412  90.3363 270.8560 0007618 256.8276 103.1725  8.59077589343570
ISIS 1                  
1 03669U 69009A   24353.58437674  .00000383  00000+0  27910-3 0  9994
2 03669  88.4462 203.9536 1707830 269.7011  70.9153 11.30121559298134
SECOR 13 (EGRS 13)      
1 03891U 69037B   24353.60457477  .00000005  00000+0  82825-4 0  9996
2 03891  99.7278 235.5655 0039854 148.4168 270.1289 13.42944427728520
ATS 5                   
1 04068U 69069A   24353.58836470  .00000106  00000+0  00000+0 0  9991
2 04068   1.3513 263.2965 0005403   3.3790 265.2754  0.99489071129482
OPS 7613 (P/L 4)        
1 04237U 69082E   24353.58569073  .00000095  00000+0  10788-3 0  9991
2 04237  70.0131 189.3139 0018107 126.4856 294.0900 13.95856130810164
OPS 7613 (P/L 1)        
1 04256U 69082B   24353.88341174  .00000252  00000+0  21115-3 0  9996
2 04256  70.0105  56.2601 0016724  52.9520 307.3114 13.98948189814197
SHINSEI (MS-F2)         
1 05485U 71080A   24353.35586398  .00000123  00000+0  22299-3 0  9994
2 05485  32.0551 304.9071 0639784  30.0935 333.4881 12.74220712479751
PROSPERO (BLACK ARROW)  
1 05580U 71093A   24353.55853005  .00002744  00000+0  59795-3 0  9990
2 05580  82.0400  49.0413 0509046 349.7143   9.3901 13.99506043672142
OPS 7898 (P/L 2)        
1 05680U 71110C   24353.90592655  .00000046  00000+0  10153-3 0  9999
2 05680  69.9906  48.1647 0006000 153.6206 206.5194 13.74687071274485
NOAA 2 (ITOS-D)         
1 06235U 72082A   24353.58210524 -.00000032  00000+0  93612-4 0  9999
2 06235 102.0227 354.7251 0004168 129.1816 343.5907 12.53192454386606
EXPLORER 50 (IMP-8)     
1 06893U 73078A   24344.60074536 -.00000726  00000+0  00000+0 0  9993
2 06893   6.6978 189.9430 1380793   8.7271   8.6182  0.08283698 11443
OSCAR 7 (AO-7)          
1 07530U 74089B   24353.88246000 -.00000038  00000+0  52157-4 0  9993
2 07530 101.9901 350.3374 0012391  91.7686 330.9795 12.53683914292423
TIROS N                 
1 11060U 78096A   24353.81794519  .00000377  00000+0  20064-3 0  9990
2 11060  98.5107  27.1343 0010862  27.6914 332.4839 14.19048253601631
PHASE 3B (AO-10)        
1 14129U 83058B   24352.00653517 -.00000462  00000+0  00000+0 0  9995
2 14129  27.2495 310.3123 6042278 325.5734   6.9725  2.05873126284220
HILAT                   
1 14154U 83063A   24353.94851399  .00000969  00000+0  31218-3 0  9991
2 14154  82.0241 307.7338 0040526 140.5627 279.1780 14.38011883169464
UOSAT 2 (UO-11)         
1 14781U 84021B   24353.88373996  .00002886  00000+0  31795-3 0  9997
2 14781  97.7318 318.0574 0007665 175.0963 185.0330 14.88276155196947
NOAA 9                  
1 15427U 84123A   24353.58692264  .00000297  00000+0  17125-3 0  9992
2 15427  99.1243 355.6380 0015656  94.4219  14.6693 14.16798986 66157
GEOSAT                  
1 15595U 85021A   24353.86803603  .00000492  00000+0  20142-3 0  9998
2 15595 108.0592  26.5818 0002702 275.4176  84.6658 14.39424075 84586
EUTELSAT 1-F4 (ECS 4)   
1 18351U 87078B   24353.65350124 -.00000192  00000+0  00000+0 0  9992
2 18351  14.2190 345.9627 0007822  16.2616 142.2432  0.98690796121358
PACSAT (AO-16)          
1 20439U 90005D   24353.61435978  .00000366  00000+0  14876-3 0  9995
2 20439  98.8984   3.9352 0011264  36.3664  84.0796 14.33623234824009
LUSAT (LO-19)           
1 20442U 90005G   24353.26229551  .00000428  00000+0  17073-3 0  9999
2 20442  98.8946 348.5270 0011864  11.7381 348.4077 14.33796864824152
IRS-1B                  
1 21688U 91061A   24353.90156678  .00000437  00000+0  34171-3 0  9993
2 21688  99.3857 337.8154 0025211  46.9643  10.3865 13.97726205592564
COSMOS 2197             
1 22034U 92042A   24353.87490819  .00000051  00000+0  21854-3 0  9999
2 22034  82.5941 217.3806 0013430  75.1957 296.0423 12.64226938496675
PEGASUS R/B             
1 22491U 93009C   24353.16182498  .00002675  00000+0  53863-3 0  9992
2 22491  24.9783 282.8258 0045090 343.5491  16.3558 14.56497042689895
EYESAT A (AO-27)        
1 22825U 93061C   24353.69246440  .00000288  00000+0  12765-3 0  9991
2 22825  98.7643  48.1715 0007373 257.6104 102.4253 14.30683430629263
ITAMSAT (IO-26)         
1 22826U 93061D   24353.62066290  .00000318  00000+0  13797-3 0  9998
2 22826  98.7590  47.9706 0008007 240.6171 119.4213 14.31084452629526
RADIO ROSTO (RS-15)     
1 23439U 94085A   24353.58832556 -.00000051  00000+0 -24021-3 0  9995
2 23439  64.8164 105.5607 0146138 108.2911 253.3974 11.27580325234388
JAS-2 (FO-29)           
1 24278U 96046B   24353.52100559  .00000064  00000+0  98050-4 0  9997
2 24278  98.5885 264.0490 0350879  70.8996 292.9789 13.53226049399365
FORTE                   
1 24920U 97047A   24353.83177539  .00000539  00000+0  24219-3 0  9991
2 24920  69.9517 165.4513 0024884 297.8701  61.9901 14.27486460421118
NOAA 15                 
1 25338U 98030A   24353.89196712  .00000370  00000+0  17024-3 0  9997
2 25338  98.5526  17.0406 0010947 140.3998 219.7984 14.26829012383774
TECHSAT 1B (GO-32)      
1 25397U 98043D   24353.31293930  .00000244  00000+0  12599-3 0  9995
2 25397  98.9487 323.0411 0001532  30.9590 329.1678 14.24213581373622
ISS (ZARYA)             
1 25544U 98067A   24353.85728572  .00014581  00000+0  25619-3 0  9995
2 25544  51.6381 120.4297 0007817 356.1308   3.9620 15.50722470487192
ORSTED                  
1 25635U 99008B   24353.33480302  .00001202  00000+0  27931-3 0  9996
2 25635  96.4472  15.5267 0134903 136.5508 224.6419 14.50628977362793
LANDSAT 7               
1 25682U 99020A   24353.39912017  .00000980  00000+0  20774-3 0  9991
2 25682  97.8738  11.4193 0001627  97.9677  14.3522 14.61230206366037
ORBCOMM FM36            
1 25984U 99065E   24353.04439175  .00002469  00000+0  86923-3 0  9998
2 25984  45.0376 228.7850 0003693 102.6835 257.4427 14.37189408308358
DMSP 5D-3 F15 (USA 147) 
1 25991U 99067A   24353.91779125  .00000362  00000+0  20213-3 0  9996
2 25991  99.0552  12.8614 0010796 110.8221 314.6340 14.17239444293428
OPAL (OO-38)            
1 26063U 00004C   24353.26192179  .00000440  00000+0  16487-3 0  9991
2 26063 100.2251 177.7750 0036365 136.6320 223.7732 14.37627617304836
IMAGE                   
1 26113U 00017A   24352.01109922  .00000198  00000+0  12193-1 0  9995
2 26113  93.9857 306.6397 7637740 353.8357   0.2368  1.68650060152276
CLUSTER II-FM7 (SAMBA)  
1 26410U 00041A   24354.48513691  .00001224  00000+0  00000+0 0  9990
2 26410 141.6109   3.7677 7952636 218.9662 359.5945  0.44791967 29625
CLUSTER II-FM5 (RUMBA)  
1 26463U 00045A   24354.33732558  .00008079  00000+0  00000+0 0  9996
2 26463 153.5385  43.1694 8896067 259.8340 359.4396  0.42899497 17789
CLUSTER II-FM8 (TANGO)  
1 26464U 00045B   24354.56912434  .00001246  00000+0  00000+0 0  9994
2 26464 141.8254   4.0531 7954319 219.1124 359.5914  0.44418426 17883
MEGSAT-1                
1 26546U 00057B   24353.31351423  .00006340  00000+0  51909-3 0  9993
2 26546  64.5533  11.8012 0010095 255.1151 104.8846 15.00090138315613
PHASE 3D (AO-40)        
1 26609U 00072B   24350.30423149 -.00000287  00000+0  00000+0 0  9998
2 26609   8.2008  67.4805 7992786  12.6030 359.1906  1.25589320110755
ODIN                    
1 26702U 01007A   24353.31895954  .00021581  00000+0  71578-3 0  9993
2 26702  97.4649   8.6669 0006863   6.2334 353.8991 15.31252874304995
OMNI-M1                 
1 26857U 01026A   24352.43395281 -.00000058  00000+0  00000+0 0  9990
2 26857  45.0151  10.9822 0017875 273.9679  85.8692  3.92401636184116
PCSAT (NO-44)           
1 26931U 01043C   24353.88155514  .00000398  00000+0  18056-3 0  9995
2 26931  67.0495 214.2952 0006646 260.4119  99.6232 14.31544326212542
PROBA-1                 
1 26958U 01049B   24353.90196680  .00005033  00000+0  35969-3 0  9995
2 26958  97.9347 334.4693 0059552 161.5997 198.7400 15.03522094261624
SPOT 5                  
1 27421U 02021A   24353.88270721  .00001304  00000+0  28658-3 0  9992
2 27421  98.0639  43.7684 0131533 169.7888 190.6030 14.53918882183615
FENGYUN 1D              
1 27431U 02024B   24353.66201937  .00000074  00000+0  67525-4 0  9995
2 27431  99.0319  33.1770 0014998 339.4604  20.5962 14.10083078162668
SAUDISAT 1C (SO-50)     
1 27607U 02058C   24353.16469256  .00002816  00000+0  38116-3 0  9991
2 27607  64.5552  15.4112 0035465  21.3230 338.9343 14.80525391183541
CORIOLIS                
1 27640U 03001A   24353.89413214  .00000326  00000+0  17489-3 0  9994
2 27640  98.7139 358.1907 0013840 347.6341  12.4494 14.19666413136808
